NORAD_CAT_ID,OBJECT_NAME,OBJECT_TYPE,EPOCH,MEAN_MOTION,ECCENTRICITY,INCLINATION,RA_OF_ASC_NODE,ARG_OF_PERICENTER,MEAN_ANOMALY,BSTAR,MEAN_MOTION_DOT,MEAN_MOTION_DDOT,TLE_LINE0,TLE_LINE1,TLE_LINE2,SEMIMAJOR_AXIS,PERIOD,APOGEE,PERIGEE,DECAYED
55297.0,STARLINK-5284,PAYLOAD,2024-06-05 05:03:32,14.98324998,0.0003209,69.9989,204.3072,270.4069,89.6723,-6.471e-05,-8.65e-06,0.0,0 STARLINK-5284,1 55297U 23010AE  24157.21079226 -.00000865  00000-0 -64710-4 0  9995,2 55297  69.9989 204.3072 0003209 270.4069  89.6723 14.98324998 76724,6950.208,96.107,574.304,569.843,0.0
55297.0,STARLINK-5284,PAYLOAD,2024-06-05 11:28:04,14.98324791,0.000312,69.9991,203.6332,268.0704,92.0098,-5.4129e-05,-7.39e-06,0.0,0 STARLINK-5284,1 55297U 23010AE  24157.47783266 -.00000739  00000-0 -54129-4 0  9992,2 55297  69.9991 203.6332 0003120 268.0704  92.0098 14.98324791 77072,6950.209,96.107,574.242,569.906,0.0
55297.0,STARLINK-5284,PAYLOAD,2024-06-06 05:05:32,14.9833597,0.0003262,69.9989,201.782,268.5875,91.491,1.5565e-05,9.3e-07,0.0,0 STARLINK-5284,1 55297U 23010AE  24158.21218252  .00000093  00000-0  15565-4 0  9995,2 55297  69.9989 201.7820 0003262 268.5875  91.4910 14.98335970 76875,6950.174,96.107,574.307,569.772,0.0
55297.0,STARLINK-5284,PAYLOAD,2024-06-06 11:30:04,14.98340224,0.0003272,69.9988,201.1088,268.306,91.7724,3.7146e-05,3.5e-06,0.0,0 STARLINK-5284,1 55297U 23010AE  24158.47921800  .00000350  00000-0  37146-4 0  9998,2 55297  69.9988 201.1088 0003272 268.3060  91.7724 14.98340224 77223,6950.161,96.106,574.3,569.752,0.0
55297.0,STARLINK-5284,PAYLOAD,2024-06-07 01:55:17,14.98326223,0.0003158,69.9994,199.594,267.0952,92.9845,5.4054e-05,5.52e-06,0.0,0 STARLINK-5284,1 55297U 23010AE  24159.08006503  .00000552  00000-0  54054-4 0  9991,2 55297  69.9994 199.5940 0003158 267.0952  92.9845 14.98326223 77002,6950.205,96.107,574.264,569.875,0.0
55297.0,STARLINK-5284,PAYLOAD,2024-06-07 09:55:59,14.98311673,0.0003392,69.9986,198.752,269.9495,90.1276,-0.00012136,-1.54e-05,0.0,0 STARLINK-5284,1 55297U 23010AE  24159.41388116 -.00001540  00000-0 -12136-3 0  9995,2 55297  69.9986 198.7520 0003392 269.9495  90.1276 14.98311673 77057,6950.25,96.108,574.472,569.757,0.0
55297.0,STARLINK-5284,PAYLOAD,2024-06-07 19:32:47,14.98319178,0.0003591,69.9984,197.7406,272.9897,87.0851,-8.9484e-05,-1.16e-05,0.0,0 STARLINK-5284,1 55297U 23010AE  24159.81443868 -.00001160  00000-0 -89484-4 0  9994,2 55297  69.9984 197.7406 0003591 272.9897  87.0851 14.98319178 77117,6950.226,96.108,574.587,569.596,0.0
55297.0,STARLINK-5284,PAYLOAD,2024-06-08 11:34:07,14.9832729,0.000339,69.9987,196.0584,267.9491,92.128,-5.0875e-05,-7e-06,0.0,0 STARLINK-5284,1 55297U 23010AE  24160.48203598 -.00000700  00000-0 -50875-4 0  9994,2 55297  69.9987 196.0584 0003390 267.9491  92.1280 14.98327290 77522,6950.201,96.107,574.422,569.71,0.0
55297.0,STARLINK-5284,PAYLOAD,2024-06-09 11:36:08,14.98325458,0.0003501,69.9985,193.5339,270.0177,90.0581,0.00020524,2.356e-05,0.0,0 STARLINK-5284,1 55297U 23010AE  24161.48343183  .00002356  00000-0  20524-3 0  9994,2 55297  69.9985 193.5339 0003501 270.0177  90.0581 14.98325458 77367,6950.207,96.107,574.505,569.639,0.0
55297.0,STARLINK-5284,PAYLOAD,2024-06-09 19:36:48,14.98329289,0.0003527,69.9985,192.6922,270.0676,90.0079,0.00017296,1.971e-05,0.0,0 STARLINK-5284,1 55297U 23010AE  24161.81723061  .00001971  00000-0  17296-3 0  9992,2 55297  69.9985 192.6922 0003527 270.0676  90.0079 14.98329289 77725,6950.195,96.107,574.511,569.609,0.0
55297.0,STARLINK-5284,PAYLOAD,2024-06-10 11:38:08,14.98337124,0.0003551,69.9985,191.009,270.1327,89.9425,0.00011531,1.283e-05,0.0,0 STARLINK-5284,1 55297U 23010AE  24162.48482532  .00001283  00000-0  11531-3 0  9993,2 55297  69.9985 191.0090 0003551 270.1327  89.9425 14.98337124 77511,6950.171,96.107,574.504,569.568,0.0
55297.0,STARLINK-5284,PAYLOAD,2024-06-11 11:40:09,14.98336395,0.0003547,69.9985,188.4845,270.1448,89.9305,-2.6612e-05,-4.11e-06,0.0,0 STARLINK-5284,1 55297U 23010AE  24163.48622479 -.00000411  00000-0 -26612-4 0  9991,2 55297  69.9985 188.4845 0003547 270.1448  89.9305 14.98336395 77974,6950.173,96.107,574.503,569.573,0.0
55297.0,STARLINK-5284,PAYLOAD,2024-06-12 06:53:46,14.98336581,0.0003541,69.9986,186.465,270.3708,89.7046,-5.4798e-05,-7.47e-06,0.0,0 STARLINK-5284,1 55297U 23010AE  24164.28734186 -.00000747  00000-0 -54798-4 0  9997,2 55297  69.9986 186.4650 0003541 270.3708  89.7046 14.98336581 77788,6950.173,96.107,574.499,569.576,0.0
55297.0,STARLINK-5284,PAYLOAD,2024-06-12 18:06:42,14.9833372,0.000347,69.9987,185.2866,269.8852,90.1909,-5.4028e-05,-7.38e-06,0.0,0 STARLINK-5284,1 55297U 23010AE  24164.75466206 -.00000738  00000-0 -54028-4 0  9990,2 55297  69.9987 185.2866 0003470 269.8852  90.1909 14.98333720 78168,6950.181,96.107,574.458,569.635,0.0
55297.0,STARLINK-5284,PAYLOAD,2024-06-13 10:08:03,14.98330745,0.0003538,69.9985,183.6032,269.4992,90.5761,-1.4624e-05,-2.68e-06,0.0,0 STARLINK-5284,1 55297U 23010AE  24165.42226137 -.00000268  00000-0 -14624-4 0  9998,2 55297  69.9985 183.6032 0003538 269.4992  90.5761 14.98330745 77959,6950.191,96.107,574.515,569.597,0.0
55297.0,STARLINK-5284,PAYLOAD,2024-06-14 10:10:04,14.98329269,0.0003567,69.9984,181.0783,269.2667,90.8084,-3.0235e-05,-4.54e-06,0.0,0 STARLINK-5284,1 55297U 23010AE  24166.42366229 -.00000454  00000-0 -30235-4 0  9999,2 55297  69.9984 181.0783 0003567 269.2667  90.8084 14.98329269 78414,6950.195,96.107,574.539,569.581,0.0
55297.0,STARLINK-5284,PAYLOAD,2024-06-14 18:10:44,14.98329569,0.0003559,69.9985,180.2367,268.86,91.2152,-3.9698e-06,-1.4e-06,0.0,0 STARLINK-5284,1 55297U 23010AE  24166.75746141 -.00000140  00000-0 -39698-5 0  9995,2 55297  69.9985 180.2367 0003559 268.8600  91.2152 14.98329569 78466,6950.194,96.107,574.533,569.586,0.0
55297.0,STARLINK-5284,PAYLOAD,2024-06-15 10:12:05,14.98330628,0.000359,69.9983,178.5531,268.2322,91.8425,1.2048e-05,5.1e-07,0.0,0 STARLINK-5284,1 55297U 23010AE  24167.42505989  .00000051  00000-0  12048-4 0  9991,2 55297  69.9983 178.5531 0003590 268.2322  91.8425 14.98330628 78565,6950.191,96.107,574.551,569.561,0.0
55297.0,STARLINK-5284,PAYLOAD,2024-06-15 18:12:45,14.98329789,0.0003626,69.9983,177.7113,268.5515,91.5228,1.5851e-05,9.6e-07,0.0,0 STARLINK-5284,1 55297U 23010AE  24167.75886006  .00000096  00000-0  15851-4 0  9993,2 55297  69.9983 177.7113 0003626 268.5515  91.5228 14.98329789 78619,6950.194,96.107,574.579,569.538,0.0
55297.0,STARLINK-5284,PAYLOAD,2024-06-16 10:14:06,14.98330316,0.0003612,69.9982,176.0281,268.3904,91.6841,2.6878e-05,2.28e-06,0.0,0 STARLINK-5284,1 55297U 23010AE  24168.42645932  .00000228  00000-0  26878-4 0  9997,2 55297  69.9982 176.0281 0003612 268.3904  91.6841 14.98330316 78712,6950.192,96.107,574.567,569.547,0.0
55297.0,STARLINK-5284,PAYLOAD,2024-06-17 10:16:07,14.98330401,0.0003598,69.9982,173.5035,268.4852,91.5895,4.9216e-06,-3.4e-07,0.0,0 STARLINK-5284,1 55297U 23010AE  24169.42785955 -.00000034  00000-0  49216-5 0  9996,2 55297  69.9982 173.5035 0003598 268.4852  91.5895 14.98330401 78866,6950.192,96.107,574.557,569.556,0.0
55297.0,STARLINK-5284,PAYLOAD,2024-06-18 10:18:07,14.98332804,0.0003601,69.9982,170.9784,268.4703,91.6044,2.0827e-05,1.55e-06,0.0,0 STARLINK-5284,1 55297U 23010AE  24170.42925642  .00000155  00000-0  20827-4 0  9996,2 55297  69.9982 170.9784 0003601 268.4703  91.6044 14.98332804 78707,6950.184,96.107,574.552,569.546,0.0
55297.0,STARLINK-5284,PAYLOAD,2024-06-18 16:42:40,14.98330033,0.0003592,69.9982,170.3049,268.8846,91.1901,6.0365e-06,-2.1e-07,0.0,0 STARLINK-5284,1 55297U 23010AE  24170.69629818 -.00000021  00000-0  60365-5 0  9996,2 55297  69.9982 170.3049 0003592 268.8846  91.1901 14.98330033 79054,6950.193,96.107,574.554,569.561,0.0
55297.0,STARLINK-5284,PAYLOAD,2024-06-19 10:20:08,14.98328921,0.0003544,69.9985,168.4536,268.7069,91.3684,7.1719e-08,-9.2e-07,0.0,0 STARLINK-5284,1 55297U 23010AE  24171.43065903 -.00000092  00000-0  71719-7 0  9993,2 55297  69.9985 168.4536 0003544 268.7069  91.3684 14.98328921 78859,6950.196,96.107,574.524,569.598,0.0
55297.0,STARLINK-5284,PAYLOAD,2024-06-19 23:09:13,14.98330587,0.0003535,69.9986,167.107,268.4738,91.6016,-1.4407e-05,-2.65e-06,0.0,0 STARLINK-5284,1 55297U 23010AE  24171.96473821 -.00000265  00000-0 -14407-4 0  9994,2 55297  69.9986 167.1070 0003535 268.4738  91.6016 14.98330587 79246,6950.191,96.107,574.513,569.599,0.0
55297.0,STARLINK-5284,PAYLOAD,2024-06-20 10:22:09,14.98330544,0.0003534,69.9987,165.9288,268.343,91.7324,-1.2304e-05,-2.4e-06,0.0,0 STARLINK-5284,1 55297U 23010AE  24172.43205780 -.00000240  00000-0 -12304-4 0  9991,2 55297  69.9987 165.9288 0003534 268.3430  91.7324 14.98330544 79315,6950.191,96.107,574.512,569.6,0.0
55297.0,STARLINK-5284,PAYLOAD,2024-06-20 16:46:42,14.9833012,0.0003528,69.9989,165.2555,268.2706,91.8049,-2.7131e-06,-1.25e-06,0.0,0 STARLINK-5284,1 55297U 23010AE  24172.69909763 -.00000125  00000-0 -27131-5 0  9998,2 55297  69.9989 165.2555 0003528 268.2706  91.8049 14.98330120 79354,6950.193,96.107,574.51,569.605,0.0
55297.0,STARLINK-5284,PAYLOAD,2024-06-21 00:47:22,14.98328806,0.0003511,69.999,164.4141,268.1265,91.9491,-2.5323e-06,-1.23e-06,0.0,0 STARLINK-5284,1 55297U 23010AE  24173.03289848 -.00000123  00000-0 -25323-5 0  9991,2 55297  69.9990 164.4141 0003511 268.1265  91.9491 14.98328806 79090,6950.197,96.107,574.502,569.621,0.0
55297.0,STARLINK-5284,PAYLOAD,2024-06-21 08:48:02,14.98328405,0.0003519,69.9989,163.5726,268.3709,91.7047,3.275e-06,-5.4e-07,0.0,0 STARLINK-5284,1 55297U 23010AE  24173.36669878 -.00000054  00000-0  32750-5 0  9996,2 55297  69.9989 163.5726 0003519 268.3709  91.7047 14.98328405 79450,6950.198,96.107,574.509,569.617,0.0
55297.0,STARLINK-5284,PAYLOAD,2024-06-22 04:01:39,14.98328598,0.0003519,69.999,161.5527,268.1117,91.9639,-7.3566e-06,-1.81e-06,0.0,0 STARLINK-5284,1 55297U 23010AE  24174.16781926 -.00000181  00000-0 -73566-5 0  9996,2 55297  69.9990 161.5527 0003519 268.1117  91.9639 14.98328598 79261,6950.197,96.107,574.508,569.616,0.0
